OBJECT_NAME,OBJECT_ID,EPOCH,MEAN_MOTION,ECCENTRICITY,INCLINATION,RA_OF_ASC_NODE,ARG_OF_PERICENTER,MEAN_ANOMALY,EPHEMERIS_TYPE,CLASSIFICATION_TYPE,NORAD_CAT_ID,ELEMENT_SET_NO,REV_AT_EPOCH,BSTAR,MEAN_MOTION_DOT,MEAN_MOTION_DDOT
STARLINK-2647,2021-044W,2026-07-23T06:48:41.687712,15.31698216,.0001294,53.1575,203.5520,76.3911,283.7234,0,U,48658,999,28459,-.12480316E-4,-.752E-5,0
STARLINK-2717,2021-044X,2026-07-23T10:03:12.536640,15.31700448,.00009721,53.1578,202.3047,87.9257,272.1856,0,U,48659,999,28462,-.40756695E-4,-.1629E-4,0
STARLINK-2726,2021-044AA,2026-07-23T08:59:10.831488,15.29346300,.00014035,53.1579,203.9853,84.4723,275.6437,0,U,48662,999,28458,-.25821733E-4,-.1101E-4,0
STARLINK-2667,2021-044AB,2026-07-23T08:19:39.342432,15.31688745,.00014268,53.1577,192.6777,85.4276,274.6888,0,U,48663,999,28475,-.5986281E-4,-.2222E-4,0
STARLINK-2666,2021-044AE,2026-07-23T06:50:56.400864,15.29347401,.00014224,53.1598,204.4778,89.3410,270.7754,0,U,48666,999,28456,-.87253085E-4,-.2872E-4,0
STARLINK-2735,2021-044AF,2026-07-23T07:03:17.247168,15.29362778,.00010779,53.1583,204.3404,59.4711,300.6396,0,U,48667,999,28457,.22823722E-4,.303E-5,0
STARLINK-2738,2021-044AG,2026-07-23T08:12:56.740896,15.31695824,.00012032,53.1582,192.7521,88.8210,271.2929,0,U,48668,999,28475,-.28171991E-4,-.1239E-4,0
STARLINK-2707,2021-044AH,2026-07-23T08:26:24.454752,15.31702885,.00012321,53.1589,192.8350,105.8471,254.2667,0,U,48669,999,28474,-.39060444E-4,-.1577E-4,0
STARLINK-2763,2021-044AJ,2026-07-23T08:39:51.077376,15.31688806,.00011543,53.1598,192.9168,98.6795,261.4337,0,U,48670,999,28474,-.38775314E-4,-.1568E-4,0
STARLINK-2745,2021-044AK,2026-07-23T06:53:58.380000,15.29360169,.00011957,53.1602,204.4713,76.6198,283.4935,0,U,48671,999,28456,.32823702E-4,.591E-5,0
STARLINK-2705,2021-044AL,2026-07-23T05:38:39.393024,15.31696746,.00012511,53.1598,193.6216,88.8073,271.3072,0,U,48672,999,28472,.12526827E-4,.24E-6,0
STARLINK-2711,2021-044AM,2026-07-23T09:49:14.414304,15.29352689,.00012277,53.1579,203.8448,92.7634,267.3507,0,U,48673,999,28458,.19258141E-4,.2E-5,0
STARLINK-2712,2021-044AN,2026-07-23T06:37:17.121504,15.29352595,.00014037,53.1618,204.5103,96.2682,263.8478,0,U,48674,999,28456,-.59660908E-4,-.2077E-4,0
STARLINK-2746,2021-044AQ,2026-07-23T09:36:19.219680,15.29428953,.00009004,53.1603,203.9339,106.7522,253.3578,0,U,48676,999,28458,.56645482E-3,.16062E-3,0
STARLINK-2615,2021-044AS,2026-07-23T05:25:07.725504,15.31690690,.00015152,53.1584,193.1402,98.4373,261.6800,0,U,48678,999,28473,-.48180863E-4,-.186E-4,0
STARLINK-2648,2021-044AT,2026-07-23T09:10:46.246080,15.29363839,.00013289,53.1592,203.9441,67.4312,292.6829,0,U,48679,999,28458,.14515527E-3,.3836E-4,0
STARLINK-2725,2021-044AV,2026-07-23T04:14:27.167712,15.31694284,.00011745,53.1577,165.1910,76.5640,283.5492,0,U,48681,999,28511,-.66074328E-4,-.2414E-4,0
STARLINK-2743,2021-044AW,2026-07-23T14:00:01.000224,15.31674059,.00016029,53.1581,152.6866,87.6725,294.1370,0,U,48682,999,587,.11256072E-4,-.16E-6,0
STARLINK-2756,2021-044AX,2026-07-23T04:17:11.983488,15.31724007,.00014482,53.1593,154.7636,71.3847,288.7312,0,U,48683,999,28526,.16269815E-3,.469E-4,0
STARLINK-2741,2021-044AY,2026-07-23T07:56:23.308512,15.31694926,.00013868,53.1610,166.7717,88.2103,271.9057,0,U,48684,999,28511,-.9660861E-5,-.665E-5,0
STARLINK-2751,2021-044AZ,2026-07-23T05:57:48.678912,15.31720911,.00012527,53.1588,154.1496,94.5799,265.5346,0,U,48685,999,28528,.22708944E-3,.6693E-4,0
STARLINK-2629,2021-044BA,2026-07-23T04:13:55.305984,15.31698615,.00011025,53.1583,164.9489,98.5544,261.5582,0,U,48686,999,28511,-.41408105E-4,-.165E-4,0
STARLINK-2627,2021-044BB,2026-07-23T06:31:23.323872,15.31731741,.00012086,53.1582,154.1086,93.4814,266.6326,0,U,48687,999,28527,.38331804E-3,.1156E-3,0
STARLINK-2742,2021-044BC,2026-07-23T07:04:59.219904,15.31722075,.00013409,53.1585,154.2098,86.5035,273.6119,0,U,48688,999,28527,.13080012E-3,.3698E-4,0
STARLINK-2740,2021-044BE,2026-07-23T06:42:02.933568,15.31696112,.00012895,53.1586,164.4245,89.7055,270.4094,0,U,48690,999,28513,-.25720103E-4,-.1163E-4,0
STARLINK-2750,2021-044BF,2026-07-23T07:01:43.650048,15.31660210,.00011943,53.1586,164.3377,117.1724,242.9399,0,U,48691,999,28513,-.39141508E-3,-.12476E-3,0
STARLINK-2752,2021-044BG,2026-07-23T07:28:30.737568,15.31698747,.00013007,53.1598,164.0469,82.8520,277.2629,0,U,48692,999,28514,-.2517591E-4,-.1146E-4,0
STARLINK-2618,2021-044BH,2026-07-23T07:15:35.629344,15.31697064,.00012978,53.1585,164.2283,92.0961,268.0189,0,U,48693,999,28514,.11140148E-4,-.19E-6,0
STARLINK-2748,2021-044BJ,2026-07-23T07:02:48.169248,15.31694880,.00014383,53.1599,167.5103,94.0930,266.0236,0,U,48694,999,28509,.8012864E-5,-.117E-5,0
STARLINK-2616,2021-044BK,2026-07-23T07:16:35.611680,15.31684860,.00012062,53.1591,166.7735,73.4270,286.6864,0,U,48695,999,28511,.10571213E-4,-.37E-6,0
STARLINK-2753,2021-044BL,2026-07-23T05:19:17.888448,15.31696399,.00012311,53.1583,177.9570,87.7361,272.3781,0,U,48696,999,28494,-.49370448E-4,-.1897E-4,0
ONEWEB-0211,2021-045A,2026-07-23T14:30:25.648992,13.16197718,.00027545,87.8982,251.8180,99.0113,261.1329,0,U,48767,999,24923,-.24635027E-4,.3E-7,0
ONEWEB-0223,2021-045B,2026-07-23T13:10:05.455200,13.15548545,.00024032,87.8982,251.9471,102.4621,257.6778,0,U,48768,999,24918,-.37712414E-3,-.129E-5,0
ONEWEB-0230,2021-045C,2026-07-23T03:21:24.596928,13.15548770,.00018705,87.8979,252.0390,95.4574,264.6769,0,U,48769,999,24939,.11355796E-3,.56E-6,0
ONEWEB-0237,2021-045D,2026-07-23T14:02:33.349344,13.15555993,.00024506,87.8963,251.9511,87.3115,272.8296,0,U,48770,999,24917,.26235909E-2,.1001E-4,0
ONEWEB-0235,2021-045E,2026-07-23T04:18:25.092576,13.15547792,.00023678,87.8983,252.0221,105.2113,254.9279,0,U,48771,999,24911,-.34077226E-3,-.115E-5,0
ONEWEB-0242,2021-045F,2026-07-23T13:16:56.053920,13.15548827,.0002024,87.8986,251.9451,102.4575,257.6782,0,U,48772,999,24920,-.16418563E-3,-.49E-6,0
ONEWEB-0241,2021-045G,2026-07-23T09:19:40.790784,13.15551087,.00023875,87.8975,251.9919,101.0111,259.1288,0,U,48773,999,24909,-.42548419E-3,-.147E-5,0
ONEWEB-0243,2021-045H,2026-07-23T02:47:09.126240,13.15517808,.00022852,87.8980,252.0598,114.7431,245.3937,0,U,48774,999,24908,.16141263E-1,.6091E-4,0
ONEWEB-0222,2021-045J,2026-07-23T09:41:18.895488,13.15547800,.00022715,87.8981,251.9720,99.0828,261.0559,0,U,48775,999,24916,.23755318E-4,.22E-6,0
ONEWEB-0244,2021-045K,2026-07-23T10:18:58.073184,13.15548180,.00020862,87.8988,251.9635,100.4152,259.7214,0,U,48776,999,24973,.21052041E-3,.92E-6,0
ONEWEB-0247,2021-045L,2026-07-23T13:53:25.649376,13.15546918,.00023544,87.8970,251.9609,117.0563,243.0808,0,U,48777,999,24919,.37070165E-3,.152E-5,0
ONEWEB-0245,2021-045M,2026-07-23T02:49:26.332896,13.15549333,.00022197,87.8982,252.0355,97.0461,263.0922,0,U,48778,999,24910,.35004622E-3,.145E-5,0
ONEWEB-0229,2021-045N,2026-07-23T13:39:45.407520,13.15548306,.00020134,87.8978,251.9431,100.6975,259.4382,0,U,48779,999,24919,.12202607E-3,.59E-6,0
ONEWEB-0228,2021-045P,2026-07-23T08:59:17.080800,13.15549318,.0002133,87.8989,251.9764,98.5419,261.5953,0,U,48780,999,24908,.21190882E-3,.93E-6,0
ONEWEB-0232,2021-045Q,2026-07-23T13:51:10.457568,13.15547649,.00021291,87.8985,251.9364,95.5824,264.5549,0,U,48781,999,24943,.4339488E-3,.176E-5,0
ONEWEB-0231,2021-045R,2026-07-23T09:40:10.645536,13.15547873,.0002274,87.8978,251.9820,100.5588,259.5799,0,U,48782,999,24910,.46256104E-4,.3E-6,0
ONEWEB-0234,2021-045S,2026-07-23T08:45:13.346784,13.15547633,.00025489,87.8992,251.9726,79.5485,280.5933,0,U,48783,999,24923,.28485759E-3,.12E-5,0
ONEWEB-0238,2021-045T,2026-07-23T03:17:01.054464,13.15548974,.00022549,87.8993,252.0142,85.9844,274.1544,0,U,48784,999,24910,.22939168E-3,.99E-6,0
ONEWEB-0240,2021-045U,2026-07-23T03:47:37.630752,13.15549730,.00023943,87.8985,252.0190,98.2383,261.9019,0,U,48785,999,24913,-.38867505E-3,-.133E-5,0
ONEWEB-0246,2021-045V,2026-07-23T09:08:13.778592,13.15548350,.00020263,87.8988,251.9788,99.2133,260.9227,0,U,48786,999,24903,-.10804155E-3,-.28E-6,0
ONEWEB-0210,2021-045W,2026-07-23T10:21:14.817600,13.15548022,.00021036,87.8986,251.9659,121.0264,239.1073,0,U,48787,999,24908,.20194694E-3,.89E-6,0
ONEWEB-0214,2021-045X,2026-07-23T08:44:16.120608,13.15546668,.00017622,87.8988,251.9763,103.7226,256.4100,0,U,48788,999,24904,.21707083E-3,.95E-6,0
ONEWEB-0221,2021-045Y,2026-07-23T05:15:29.930688,13.15547810,.00021373,87.8986,252.0131,100.0908,260.0463,0,U,48789,999,24911,.736457E-4,.41E-6,0
ONEWEB-0213,2021-045Z,2026-07-23T04:59:31.249248,13.15548711,.00021552,87.8988,252.0189,104.9982,255.1387,0,U,48790,999,24917,.15282493E-3,.7E-6,0
ONEWEB-0212,2021-045AA,2026-07-23T13:34:02.688960,13.15547260,.00020528,87.8981,251.9416,95.9312,264.2052,0,U,48791,999,24921,.99937338E-4,.5E-6,0
ONEWEB-0227,2021-045AB,2026-07-23T13:32:52.870848,13.15557958,.00021001,87.8988,251.9421,97.9418,262.1951,0,U,48792,999,24916,-.90932381E-3,-.33E-5,0
ONEWEB-0226,2021-045AC,2026-07-23T13:23:46.991328,13.15547728,.00020779,87.8980,251.9478,103.9108,256.2253,0,U,48793,999,24913,-.35496362E-4,-.1E-7,0
ONEWEB-0224,2021-045AD,2026-07-23T08:52:15.531744,13.15548845,.00029005,87.8980,252.0175,90.1222,270.0241,0,U,48794,999,24903,.2153859E-4,.21E-6,0
ONEWEB-0233,2021-045AE,2026-07-23T03:30:18.803808,13.15548405,.00022808,87.8976,252.0690,100.5974,259.5414,0,U,48795,999,24902,-.54088394E-3,-.191E-5,0
ONEWEB-0190,2021-045AF,2026-07-23T05:01:47.984160,13.15549007,.00024357,87.8984,252.0206,111.0546,249.0845,0,U,48796,999,24910,.15293501E-3,.7E-6,0
ONEWEB-0236,2021-045AG,2026-07-23T14:34:30.983520,13.15548788,.00020843,87.8973,251.9483,92.3149,267.8220,0,U,48797,999,24904,-.10242496E-3,-.26E-6,0
ONEWEB-0248,2021-045AH,2026-07-23T09:24:11.209824,13.15549261,.00025241,87.8983,251.9785,101.5309,258.6105,0,U,48798,999,24917,-.32954352E-3,-.111E-5,0
ONEWEB-0225,2021-045AJ,2026-07-23T13:35:11.852160,13.15548254,.00024017,87.8973,251.9504,108.8067,251.3324,0,U,48799,999,24920,.14394342E-3,.67E-6,0
